ONEWEB-0229             
1 48779U 21045N   25101.66457846  .00000193  00000+0  47930-3 0  9990
2 48779  87.9106 345.1838 0001887  75.6811 284.4529 13.15546846187678
ONEWEB-0228             
1 48780U 21045P   25101.92617754 -.00000110  00000+0 -32735-3 0  9995
2 48780  87.9103 345.1083 0001778  74.6145 285.5182 13.15549156187626
ONEWEB-0232             
1 48781U 21045Q   25101.90067439  .00000139  00000+0  33405-3 0  9997
2 48781  87.9098 345.1131 0001776  78.3017 281.8312 13.15550381187942
ONEWEB-0231             
1 48782U 21045R   25101.95454326  .00000106  00000+0  24868-3 0  9995
2 48782  87.9091 345.1613 0001793  70.2338 289.8986 13.15550472187640
ONEWEB-0234             
1 48783U 21045S   25101.89828698  .00000199  00000+0  49587-3 0  9993
2 48783  87.9102 345.1240 0001371 124.3063 235.8197 13.15550503187772
ONEWEB-0238             
1 48784U 21045T   25101.92839885 -.00000061  00000+0 -19643-3 0  9998
2 48784  87.9103 345.1344 0001717  84.5793 275.5533 13.15549409187677
ONEWEB-0240             
1 48785U 21045U   25101.93790499 -.00000105  00000+0 -31423-3 0  9996
2 48785  87.9104 345.0987 0001467  70.2914 289.8374 13.15550636187709
ONEWEB-0246             
1 48786U 21045V   25101.93235892 -.00000070  00000+0 -22022-3 0  9994
2 48786  87.9106 345.1088 0001877  75.6550 284.4789 13.15549902187575
